{
  "norad_id": 66294,
  "name": "SEMI-1L",
  "history": [
    {
      "epoch": "2026-03-28T13:44:52.886976Z",
      "apogee_km": 507.6482150606025,
      "perigee_km": 503.1395023481509,
      "latitude_deg": 2.0676552770120177e-05,
      "longitude_deg": 161.55471078888965,
      "height_km": 503.98178154420486,
      "semi_major_axis_km": 6883.530858704376,
      "eccentricity": 0.0003275,
      "inclination_deg": 45.4003,
      "raan_deg": 193.7664,
      "arg_perigee_deg": 310.2868,
      "mean_anomaly_deg": 49.7732,
      "mean_motion_rev_day": 15.20147979
    },
    {
      "epoch": "2026-03-29T22:52:06.162240Z",
      "apogee_km": 507.4483023024068,
      "perigee_km": 503.0566998007371,
      "latitude_deg": -1.2136439145709265e-05,
      "longitude_deg": 15.993360711450237,
      "height_km": 503.71773038561,
      "semi_major_axis_km": 6883.389501051572,
      "eccentricity": 0.000319,
      "inclination_deg": 45.4005,
      "raan_deg": 186.3706,
      "arg_perigee_deg": 316.0261,
      "mean_anomaly_deg": 44.0371,
      "mean_motion_rev_day": 15.20194806
    },
    {
      "epoch": "2026-03-30T06:45:14.550624Z",
      "apogee_km": 507.39846825355653,
      "perigee_km": 503.05231324003853,
      "latitude_deg": -3.4165527960762384e-06,
      "longitude_deg": -104.37643467780319,
      "height_km": 503.65506947281307,
      "semi_major_axis_km": 6883.362390746797,
      "eccentricity": 0.0003157,
      "inclination_deg": 45.4004,
      "raan_deg": 184.6096,
      "arg_perigee_deg": 318.0305,
      "mean_anomaly_deg": 42.0339,
      "mean_motion_rev_day": 15.20203787
    },
    {
      "epoch": "2026-03-30T13:03:45.067104Z",
      "apogee_km": 507.36474246629314,
      "perigee_km": 503.0272790029085,
      "latitude_deg": -5.3785416553072764e-05,
      "longitude_deg": 159.3285842939718,
      "height_km": 503.60123676322803,
      "semi_major_axis_km": 6883.3330107346,
      "eccentricity": 0.00031507,
      "inclination_deg": 45.4005,
      "raan_deg": 183.2009,
      "arg_perigee_deg": 319.1353,
      "mean_anomaly_deg": 40.9296,
      "mean_motion_rev_day": 15.2021352
    },
    {
      "epoch": "2026-03-30T16:13:00.300288Z",
      "apogee_km": 507.3579709954847,
      "perigee_km": 503.00798810120887,
      "latitude_deg": -4.522921783871318e-05,
      "longitude_deg": 111.18178155487189,
      "height_km": 503.57542588532124,
      "semi_major_axis_km": 6883.319979548346,
      "eccentricity": 0.00031598,
      "inclination_deg": 45.4007,
      "raan_deg": 182.4971,
      "arg_perigee_deg": 319.461,
      "mean_anomaly_deg": 40.604,
      "mean_motion_rev_day": 15.20217837
    },
    {
      "epoch": "2026-03-31T12:43:08.518080Z",
      "apogee_km": 507.25030721100757,
      "perigee_km": 502.9642486640205,
      "latitude_deg": 3.095407379975958e-05,
      "longitude_deg": 158.2271177524112,
      "height_km": 503.439617420858,
      "semi_major_axis_km": 6883.244277937513,
      "eccentricity": 0.00031134,
      "inclination_deg": 45.4008,
      "raan_deg": 177.9186,
      "arg_perigee_deg": 323.0617,
      "mean_anomaly_deg": 37.0055,
      "mean_motion_rev_day": 15.20242916
    },
    {
      "epoch": "2026-04-01T12:22:30.848448Z",
      "apogee_km": 507.1597267362067,
      "perigee_km": 502.98437212682165,
      "latitude_deg": -1.2482919920672132e-05,
      "longitude_deg": 157.12960751980955,
      "height_km": 503.3564414150861,
      "semi_major_axis_km": 6883.209049431514,
      "eccentricity": 0.0003033,
      "inclination_deg": 45.4003,
      "raan_deg": 172.6357,
      "arg_perigee_deg": 327.4929,
      "mean_anomaly_deg": 32.577,
      "mean_motion_rev_day": 15.20254587
    },
    {
      "epoch": "2026-04-02T13:36:29.813472Z",
      "apogee_km": 507.0549331914526,
      "perigee_km": 502.9924917389553,
      "latitude_deg": 1.840106656985623e-05,
      "longitude_deg": 131.9621668311174,
      "height_km": 503.2636758093605,
      "semi_major_axis_km": 6883.160712465204,
      "eccentricity": 0.0002951,
      "inclination_deg": 45.3995,
      "raan_deg": 167.0002,
      "arg_perigee_deg": 332.6826,
      "mean_anomaly_deg": 27.3905,
      "mean_motion_rev_day": 15.20270601
    },
    {
      "epoch": "2026-04-02T21:29:36.702816Z",
      "apogee_km": 507.0744279907667,
      "perigee_km": 502.91811679556395,
      "latitude_deg": 1.283033527094493e-05,
      "longitude_deg": 11.59742040895724,
      "height_km": 503.1861142800727,
      "semi_major_axis_km": 6883.133272393165,
      "eccentricity": 0.00030192,
      "inclination_deg": 45.398,
      "raan_deg": 165.238,
      "arg_perigee_deg": 333.1835,
      "mean_anomaly_deg": 26.8895,
      "mean_motion_rev_day": 15.20279692
    },
    {
      "epoch": "2026-04-03T11:41:13.160832Z",
      "apogee_km": 506.92424871843195,
      "perigee_km": 503.03941644932183,
      "latitude_deg": -3.623312106560306e-05,
      "longitude_deg": 154.94565921746306,
      "height_km": 503.24136422792793,
      "semi_major_axis_km": 6883.118832583877,
      "eccentricity": 0.0002822,
      "inclination_deg": 45.4017,
      "raan_deg": 162.0711,
      "arg_perigee_deg": 336.7862,
      "mean_anomaly_deg": 23.2896,
      "mean_motion_rev_day": 15.20284476
    },
    {
      "epoch": "2026-04-04T05:02:03.840288Z",
      "apogee_km": 506.87166499836076,
      "perigee_km": 503.0286997626936,
      "latitude_deg": 2.85493549680797e-05,
      "longitude_deg": -109.85187474476726,
      "height_km": 503.19340900846845,
      "semi_major_axis_km": 6883.087182380526,
      "eccentricity": 0.00027916,
      "inclination_deg": 45.4014,
      "raan_deg": 158.1971,
      "arg_perigee_deg": 339.6278,
      "mean_anomaly_deg": 20.4497,
      "mean_motion_rev_day": 15.20294962
    },
    {
      "epoch": "2026-04-05T10:59:52.611648Z",
      "apogee_km": 507.05456598818364,
      "perigee_km": 502.78858394459075,
      "latitude_deg": 3.363656234868198e-06,
      "longitude_deg": 152.77362581077028,
      "height_km": 503.00651884875276,
      "semi_major_axis_km": 6883.058574966387,
      "eccentricity": 0.00030989,
      "inclination_deg": 45.4043,
      "raan_deg": 151.5064,
      "arg_perigee_deg": 336.7757,
      "mean_anomaly_deg": 23.2989,
      "mean_motion_rev_day": 15.2030444
    },
    {
      "epoch": "2026-04-07T19:46:13.460160Z",
      "apogee_km": 506.59498930426435,
      "perigee_km": 503.14522614187354,
      "latitude_deg": 1.3315668880942264e-05,
      "longitude_deg": 6.173198905234992,
      "height_km": 503.19041873269526,
      "semi_major_axis_km": 6883.007107723069,
      "eccentricity": 0.0002506,
      "inclination_deg": 45.4013,
      "raan_deg": 138.8244,
      "arg_perigee_deg": 357.5743,
      "mean_anomaly_deg": 2.5131,
      "mean_motion_rev_day": 15.20321492
    },
    {
      "epoch": "2026-04-08T11:32:25.631808Z",
      "apogee_km": 506.5217743934809,
      "perigee_km": 503.2011406176416,
      "latitude_deg": 5.627734665354107e-06,
      "longitude_deg": 125.44992132006227,
      "height_km": 503.25665236580676,
      "semi_major_axis_km": 6882.998457505561,
      "eccentricity": 0.00024122,
      "inclination_deg": 45.3987,
      "raan_deg": 135.2995,
      "arg_perigee_deg": 7.062,
      "mean_anomaly_deg": 353.03,
      "mean_motion_rev_day": 15.20324358
    },
    {
      "epoch": "2026-04-09T03:18:37.668672Z",
      "apogee_km": 506.4675585393652,
      "perigee_km": 503.23847260346065,
      "latitude_deg": -2.0310310251858364e-05,
      "longitude_deg": -115.27171103083987,
      "height_km": 503.330900072567,
      "semi_major_axis_km": 6882.990015571413,
      "eccentricity": 0.00023457,
      "inclination_deg": 45.3976,
      "raan_deg": 131.7757,
      "arg_perigee_deg": 14.2902,
      "mean_anomaly_deg": 345.805,
      "mean_motion_rev_day": 15.20327155
    }
  ]
}